PROBA-1                 
1 26958U 01049B   22242.51912508  .00000991  00000+0  87949-4 0  9996
2 26958  97.8290 202.4139 0073180  96.8927 264.0626 14.96507657135553
BIRD 2                  
1 26959U 01049C   22242.53289446  .00009932  00000+0  20635-3 0  9999
2 26959  97.7633 339.4112 0007631 105.8421 254.3668 15.45866281464621
CUTE-1 (CO-55)          
1 27844U 03031E   22242.49449418  .00000117  00000+0  72235-4 0  9998
2 27844  98.6802 249.0670 0008711 245.1093 114.9180 14.22484989994398
CUBESAT XI-IV (CO-57)   
1 27848U 03031J   22242.48063869  .00000096  00000+0  63014-4 0  9994
2 27848  98.6847 249.5573 0008541 261.3591  98.6619 14.22037788994208
GENESIS 1               
1 29252U 06029A   22242.30291415  .00002244  00000+0  10573-3 0  9994
2 29252  64.5214 188.4902 0056609 250.8559 108.6433 15.21154598890201
FALCONSAT-3             
1 30776U 07006E   22242.11724306  .00032411  00000+0  41372-3 0  9992
2 30776  35.4298 135.9546 0003777 325.3730  34.6757 15.58251809861063
GENESIS 2               
1 31789U 07028A   22242.36343111  .00002537  00000+0  12255-3 0  9993
2 31789  64.4947 231.6589 0054043 303.6696  55.9280 15.20023962837138
APRIZESAT 4             
1 35684U 09041D   22242.48479740  .00000266  00000+0  42420-4 0  9994
2 35684  98.3106 258.6667 0048036 113.6762 246.9500 14.79708366706013
APRIZESAT 3             
1 35686U 09041F   22242.47066187  .00000374  00000+0  45621-4 0  9998
2 35686  98.1057 330.7914 0070852 305.1093  54.3494 14.88019758709613
PROBA-2                 
1 36037U 09059B   22242.44430558  .00000037  00000+0  19665-4 0  9997
2 36037  98.2252  67.6504 0012281 238.2542 121.7458 14.53284957680007
APRIZESAT 5             
1 37792U 11044E   22242.47414290  .00000265  00000+0  45729-4 0  9994
2 37792  98.3138 120.0451 0058710 127.5412 233.1151 14.75818484593911
APRIZESAT 6             
1 37793U 11044F   22242.56252333  .00000219  00000+0  42400-4 0  9995
2 37793  98.3935  97.1258 0046540 179.0113 214.2007 14.72836183592770
TET-1                   
1 38710U 12039D   22242.20055446  .00051498  00000+0  29868-3 0  9994
2 38710  97.5045 328.7599 0002063 151.5344 208.6036 15.78412049569015
PROBA-V                 
1 39159U 13021A   22242.33406501 -.00000002  00000+0  17166-4 0  9995
2 39159  98.3529 274.4904 0003273 222.7635 137.3290 14.23045595483836
STPSAT-3                
1 39380U 13064A   22242.37937985  .00020109  00000+0  38383-3 0  9999
2 39380  40.4974 312.1818 0006287 131.9859 228.1495 15.47586654490742
APRIZESAT 7             
1 39416U 13066A   22242.49609123  .00000398  00000+0  52559-4 0  9994
2 39416  97.5787 218.9492 0042195 113.2443 247.3223 14.84539868475052
APRIZESAT 8             
1 39425U 13066K   22242.46797357  .00000294  00000+0  42922-4 0  9996
2 39425  97.6336 210.4379 0052043 156.5820 203.7780 14.81685569473921
BUGSAT-1 (TITA)         
1 40014U 14033E   22242.60472070  .00000413  00000+0  41322-4 0  9991
2 40014  98.1460 244.0552 0031180 150.0306 210.2708 14.96923847447232
SAUDISAT 4              
1 40016U 14033G   22242.48490258  .00000187  00000+0  34112-4 0  9994
2 40016  97.6406  73.2599 0046588 261.0309  98.5626 14.75605809441316
APRIZESAT 9             
1 40018U 14033J   22242.44715196  .00000141  00000+0  30468-4 0  9993
2 40018  97.7226  49.0877 0070454 337.0777  22.7290 14.70313207439520
APRIZESAT 10            
1 40019U 14033K   22242.41427094  .00000110  00000+0  26742-4 0  9994
2 40019  97.7778  38.8614 0084366  21.2883 339.1798 14.67354379438646
TDS 1                   
1 40076U 14037H   22242.38876967  .00000923  00000+0  11282-3 0  9998
2 40076  98.3802 119.2279 0006483 181.1251 178.9949 14.85866397440686
TIANTUO 2               
1 40144U 14053B   22242.47629431  .00002954  00000+0  79638-4 0  9990
2 40144  97.1912 320.9654 0009131 297.2632 187.0722 15.38567575446472
TECHNOSAT               
1 42829U 17042E   22242.46275807  .00000834  00000+0  87192-4 0  9995
2 42829  97.4138  92.2620 0015328 116.7668 243.5122 14.92002050279127
FLYING LAPTOP           
1 42831U 17042G   22242.57816982 -.00000138  00000+0 -84699-5 0  9994
2 42831  97.4152  92.7017 0015145 116.4068 243.8726 14.91888209279141
HAWK-A                  
1 43765U 18099H   22242.46130606  .00001253  00000+0  11291-3 0  9997
2 43765  97.6135 308.5846 0015083  29.2933 330.9131 14.97258397204211
HAWK-B                  
1 43794U 18099AN  22242.19436990  .00001181  00000+0  10672-3 0  9996
2 43794  97.6135 308.3244 0015169  30.2670 329.9426 14.97257158204161
HAWK-C                  
1 43799U 18099AT  22242.19418969  .00001178  00000+0  10648-3 0  9996
2 43799  97.6133 308.2320 0015047  30.0901 330.1183 14.97257512204919
SALSAT                  
1 46495U 20068K   22242.44670327  .00001765  00000+0  12930-3 0  9995
2 46495  97.7328 183.7938 0017221  31.8998 328.3267 15.04761477105319
